COMMENT,ORIGINATOR,NORAD_CAT_ID,OBJECT_NAME,OBJECT_TYPE,CLASSIFICATION_TYPE,INTLDES,EPOCH,EPOCH_MICROSECONDS,MEAN_MOTION,ECCENTRICITY,INCLINATION,RA_OF_ASC_NODE,ARG_OF_PERICENTER,MEAN_ANOMALY,EPHEMERIS_TYPE,ELEMENT_SET_NO,REV_AT_EPOCH,BSTAR,MEAN_MOTION_DOT,MEAN_MOTION_DDOT,FILE,TLE_LINE0,TLE_LINE1,TLE_LINE2,OBJECT_ID,OBJECT_NUMBER,SEMIMAJOR_AXIS,PERIOD,APOGEE,PERIGEE,DECAYED
GENERATED VIA SPACETRACK.ORG API,18 SPCS,50803,STARLINK-3321,PAYLOAD,U,22001A,2022-05-16 06:00:02,160,15.08838879,0.0001494,53.2171,304.5002,50.0144,65.8762,0,999,2131,0.00048293,7.406e-05,0.0,3447659,0 STARLINK-3321,1 50803U 22001A   22136.25002315  .00007406  00000-0  48293-3 0  9999,2 50803  53.2171 304.5002 0001494  50.0144  65.8762 15.08838879 21311,2022-001A,50803,6917.884,95.438,540.782,538.715,1
GENERATED VIA SPACETRACK.ORG API,18 SPCS,50803,STARLINK-3321,PAYLOAD,U,22001A,2022-05-16 14:00:01,224,15.08849507,0.0001572,53.2173,303.0043,52.837,74.5775,0,999,130,-0.0025655,-0.00040897,0.0,3448591,0 STARLINK-3321,1 50803U 22001A   22136.58334491 -.00040897  00000-0 -25655-2 0  9997,2 50803  53.2173 303.0043 0001572  52.8370  74.5775 15.08849507  1308,2022-001A,50803,6917.851,95.437,540.804,538.629,1
GENERATED VIA SPACETRACK.ORG API,18 SPCS,50803,STARLINK-3321,PAYLOAD,U,22001A,2022-05-16 20:00:01,224,15.08819145,0.0001685,53.2171,301.8832,47.5594,358.557,0,999,2140,-0.00010096,-1.894e-05,0.0,3448725,0 STARLINK-3321,1 50803U 22001A   22136.83334491 -.00001894  00000-0 -10096-3 0  9993,2 50803  53.2171 301.8832 0001685  47.5594 358.5570 15.08819145 21408,2022-001A,50803,6917.944,95.439,540.975,538.643,1
GENERATED VIA SPACETRACK.ORG API,18 SPCS,50803,STARLINK-3321,PAYLOAD,U,22001A,2022-05-16 22:00:00,999936,15.08798556,0.000166,53.2169,301.5091,44.8966,94.1194,0,999,130,0.0026052,0.0004137,0.0,3449601,0 STARLINK-3321,1 50803U 22001A   22136.91667824  .00041370  00000-0  26052-2 0  9990,2 50803  53.2169 301.5091 0001660  44.8966  94.1194 15.08798556  1309,2022-001A,50803,6918.007,95.44,541.02,538.724,1
GENERATED VIA SPACETRACK.ORG API,18 SPCS,50803,STARLINK-3321,PAYLOAD,U,22001A,2022-05-17 14:00:01,999872,15.08800752,0.0001571,53.2176,298.5191,49.1072,113.1202,0,999,130,0.0013884,0.00021854,0.0,3450137,0 STARLINK-3321,1 50803U 22001A   22137.58335648  .00021854  00000-0  13884-2 0  9994,2 50803  53.2176 298.5191 0001571  49.1072 113.1202 15.08800752  1304,2022-001A,50803,6918.0,95.44,540.952,538.779,1
GENERATED VIA SPACETRACK.ORG API,18 SPCS,50803,STARLINK-3321,PAYLOAD,U,22001A,2022-05-17 22:00:01,999584,15.08802102,0.0001752,53.2166,297.02,47.2552,126.5499,0,999,130,0.0038014,0.0006067,0.0,3451081,0 STARLINK-3321,1 50803U 22001A   22137.91668981  .00060670  00000-0  38014-2 0  9991,2 50803  53.2166 297.0200 0001752  47.2552 126.5499 15.08802102  1308,2022-001A,50803,6917.996,95.44,541.073,538.649,1
GENERATED VIA SPACETRACK.ORG API,18 SPCS,50803,STARLINK-3321,PAYLOAD,U,22001A,2022-05-18 06:00:00,999648,15.0881833,0.0001687,53.2175,295.5278,54.7505,130.5673,0,999,2161,0.001876,0.00029677,0.0,3450875,0 STARLINK-3321,1 50803U 22001A   22138.25001157  .00029677  00000-0  18760-2 0  9993,2 50803  53.2175 295.5278 0001687  54.7505 130.5673 15.08818330 21619,2022-001A,50803,6917.947,95.439,540.979,538.645,1
GENERATED VIA SPACETRACK.ORG API,18 SPCS,50803,STARLINK-3321,PAYLOAD,U,22001A,2022-05-18 14:00:01,224,15.08843967,0.0001756,53.2168,294.0265,54.7088,142.2098,0,999,130,-0.0010881,-0.00017565,0.0,3451871,0 STARLINK-3321,1 50803U 22001A   22138.58334491 -.00017565  00000-0 -10881-2 0  9990,2 50803  53.2168 294.0265 0001756  54.7088 142.2098 15.08843967  1303,2022-001A,50803,6917.868,95.437,540.948,538.518,1
GENERATED VIA SPACETRACK.ORG API,18 SPCS,50803,STARLINK-3321,PAYLOAD,U,22001A,2022-05-18 22:00:00,999936,15.08836592,0.0001843,53.2164,292.5312,48.5456,159.9674,0,999,130,0.001149,0.00018044,0.0,3452356,0 STARLINK-3321,1 50803U 22001A   22138.91667824  .00018044  00000-0  11490-2 0  9994,2 50803  53.2164 292.5312 0001843  48.5456 159.9674 15.08836592  1303,2022-001A,50803,6917.891,95.438,541.031,538.481,1
GENERATED VIA SPACETRACK.ORG API,18 SPCS,50803,STARLINK-3321,PAYLOAD,U,22001A,2022-05-19 06:00:00,999648,15.08809373,0.0001641,53.2165,291.033,51.683,168.4403,0,999,2176,0.0033868,0.00053981,0.0,3452504,0 STARLINK-3321,1 50803U 22001A   22139.25001157  .00053981  00000-0  33868-2 0  9995,2 50803  53.2165 291.0330 0001641  51.6830 168.4403 15.08809373 21769,2022-001A,50803,6917.974,95.439,540.974,538.704,1
GENERATED VIA SPACETRACK.ORG API,18 SPCS,50803,STARLINK-3321,PAYLOAD,U,22001A,2022-05-19 14:00:01,999872,15.08868589,0.0001719,53.2166,289.5376,51.1001,180.6584,0,999,130,-0.0028809,-0.00045882,0.0,3453038,0 STARLINK-3321,1 50803U 22001A   22139.58335648 -.00045882  00000-0 -28809-2 0  9998,2 50803  53.2166 289.5376 0001719  51.1001 180.6584 15.08868589  1301,2022-001A,50803,6917.793,95.436,540.847,538.469,1
GENERATED VIA SPACETRACK.ORG API,18 SPCS,50803,STARLINK-3321,PAYLOAD,U,22001A,2022-05-19 22:00:00,999936,15.08835322,0.0001818,53.2164,288.0422,44.4596,198.853,0,999,2186,-0.00062642,-0.00010243,0.0,3453227,0 STARLINK-3321,1 50803U 22001A   22139.91667824 -.00010243  00000-0 -62642-3 0  9996,2 50803  53.2164 288.0422 0001818  44.4596 198.8530 15.08835322 21863,2022-001A,50803,6917.895,95.438,541.017,538.502,1
GENERATED VIA SPACETRACK.ORG API,18 SPCS,50803,STARLINK-3321,PAYLOAD,U,22001A,2022-05-19 22:00:00,999936,15.08835322,0.0001818,53.2164,288.0422,44.4596,198.853,0,999,130,-0.00062642,-0.00010243,0.0,3453812,0 STARLINK-3321,1 50803U 22001A   22139.91667824 -.00010243  00000-0 -62642-3 0  9996,2 50803  53.2164 288.0422 0001818  44.4596 198.8530 15.08835322  1300,2022-001A,50803,6917.895,95.438,541.017,538.502,1
GENERATED VIA SPACETRACK.ORG API,18 SPCS,50803,STARLINK-3321,PAYLOAD,U,22001A,2022-05-20 14:00:01,224,15.08860843,0.0001801,53.2166,285.0488,49.1867,217.2933,0,999,2197,-0.001551,-0.00024902,0.0,3454434,0 STARLINK-3321,1 50803U 22001A   22140.58334491 -.00024902  00000-0 -15510-2 0  9990,2 50803  53.2166 285.0488 0001801  49.1867 217.2933 15.08860843 21970,2022-001A,50803,6917.817,95.436,540.928,538.436,1
GENERATED VIA SPACETRACK.ORG API,18 SPCS,50803,STARLINK-3321,PAYLOAD,U,22001A,2022-05-20 14:00:01,224,15.08860843,0.0001801,53.2166,285.0488,49.1867,217.2933,0,999,130,-0.001551,-0.00024902,0.0,3455160,0 STARLINK-3321,1 50803U 22001A   22140.58334491 -.00024902  00000-0 -15510-2 0  9990,2 50803  53.2166 285.0488 0001801  49.1867 217.2933 15.08860843  1305,2022-001A,50803,6917.817,95.436,540.928,538.436,1
GENERATED VIA SPACETRACK.ORG API,18 SPCS,50803,STARLINK-3321,PAYLOAD,U,22001A,2022-05-20 22:00:00,999936,15.08846903,0.0001819,53.2164,283.5532,41.2806,236.8117,0,999,130,-0.0014987,-0.00024066,0.0,3456446,0 STARLINK-3321,1 50803U 22001A   22140.91667824 -.00024066  00000-0 -14987-2 0  9994,2 50803  53.2164 283.5532 0001819  41.2806 236.8117 15.08846903  1303,2022-001A,50803,6917.859,95.437,540.983,538.466,1
GENERATED VIA SPACETRACK.ORG API,18 SPCS,50803,STARLINK-3321,PAYLOAD,U,22001A,2022-05-21 06:00:00,999648,15.08797957,0.0001838,53.2166,282.0549,38.2216,251.5361,0,999,2207,0.0018543,0.00029313,0.0,3455859,0 STARLINK-3321,1 50803U 22001A   22141.25001157  .00029313  00000-0  18543-2 0  9993,2 50803  53.2166 282.0549 0001838  38.2216 251.5361 15.08797957 22075,2022-001A,50803,6918.009,95.44,541.145,538.602,1
GENERATED VIA SPACETRACK.ORG API,18 SPCS,50803,STARLINK-3321,PAYLOAD,U,22001A,2022-05-21 06:00:00,999648,15.08797957,0.0001838,53.2166,282.0549,38.2216,251.5361,0,999,130,0.0018543,0.00029313,0.0,3456458,0 STARLINK-3321,1 50803U 22001A   22141.25001157  .00029313  00000-0  18543-2 0  9993,2 50803  53.2166 282.0549 0001838  38.2216 251.5361 15.08797957  1308,2022-001A,50803,6918.009,95.44,541.145,538.602,1
GENERATED VIA SPACETRACK.ORG API,18 SPCS,50803,STARLINK-3321,PAYLOAD,U,22001A,2022-05-21 14:00:01,999872,15.08816998,0.000199,53.2175,280.5654,35.4277,265.874,0,999,2212,0.0021391,0.00033899,0.0,3456607,0 STARLINK-3321,1 50803U 22001A   22141.58335648  .00033899  00000-0  21391-2 0  9993,2 50803  53.2175 280.5654 0001990  35.4277 265.8740 15.08816998 22122,2022-001A,50803,6917.951,95.439,541.192,538.439,1
GENERATED VIA SPACETRACK.ORG API,18 SPCS,50803,STARLINK-3321,PAYLOAD,U,22001A,2022-05-21 20:00:01,224,15.08809311,0.0002089,53.2167,279.4383,33.2808,186.7493,0,999,2215,0.0027435,0.00043609,0.0,3457192,0 STARLINK-3321,1 50803U 22001A   22141.83334491  .00043609  00000-0  27435-2 0  9991,2 50803  53.2167 279.4383 0002089  33.2808 186.7493 15.08809311 22155,2022-001A,50803,6917.974,95.439,541.284,538.394,1
GENERATED VIA SPACETRACK.ORG API,18 SPCS,50803,STARLINK-3321,PAYLOAD,U,22001A,2022-05-21 22:00:00,999936,15.08822761,0.0002064,53.2165,279.0639,32.7294,280.1912,0,999,130,0.0014765,0.00023278,0.0,3457577,0 STARLINK-3321,1 50803U 22001A   22141.91667824  .00023278  00000-0  14765-2 0  9991,2 50803  53.2165 279.0639 0002064  32.7294 280.1912 15.08822761  1302,2022-001A,50803,6917.933,95.439,541.226,538.37,1
GENERATED VIA SPACETRACK.ORG API,18 SPCS,50803,STARLINK-3321,PAYLOAD,U,22001A,2022-05-22 06:00:00,999648,15.0881516,0.0001878,53.2167,277.5659,37.4214,287.079,0,999,2222,0.0014243,0.00022437,0.0,3457727,0 STARLINK-3321,1 50803U 22001A   22142.25001157  .00022437  00000-0  14243-2 0  9997,2 50803  53.2167 277.5659 0001878  37.4214 287.0790 15.08815160 22224,2022-001A,50803,6917.956,95.439,541.121,538.522,1
GENERATED VIA SPACETRACK.ORG API,18 SPCS,50803,STARLINK-3321,PAYLOAD,U,22001A,2022-05-22 14:00:01,224,15.08832632,0.000202,53.2168,276.0709,36.3721,299.6966,0,999,130,-0.0028874,-0.0004594,0.0,3458680,0 STARLINK-3321,1 50803U 22001A   22142.58334491 -.00045940  00000-0 -28874-2 0  9994,2 50803  53.2168 276.0709 0002020  36.3721 299.6966 15.08832632  1309,2022-001A,50803,6917.903,95.438,541.165,538.37,1
